,zpid,street,city,state,zipcode
0,49144758,18400 Occidental Ave S,Burien,WA,98148
1,48713210,11845 22nd Ave SW,Burien,WA,98146
2,2101311643,383 S 163rd St,Burien,WA,98148
3,48935146,13823 1st Ave SW,Burien,WA,98166
4,2108088545,1239 SW 132nd Ln APT 812,Burien,WA,98146
5,48849544,1012 SW 132nd St,Burien,WA,98146
6,48767493,1230 SW 157th St,Burien,WA,98166
7,48773714,449 S 189th St,Seattle,WA,98148
8,48734183,321 S 128th St,Burien,WA,98168
9,48944412,256 S 182nd St,Burien,WA,98148
10,2101311833,265 S 163rd St,Burien,WA,98092
11,82362610,11801 Ambaum Blvd SW UNIT 1,Burien,WA,98146
12,48944149,450 S 181st St,Burien,WA,98148
13,48713292,11616 23rd Ave SW,Burien,WA,98146
14,2101311667,241 S 163rd St,Burien,WA,98148
15,2101311666,351 S 163rd St,Burien,WA,98148
16,2101311825,285 S 163rd St,Burien,WA,98148
17,48856704,11808 Marine View Dr SW,Burien,WA,98146
18,2101311820,335 S 163rd St,Burien,WA,98148
19,48754636,14439 8th Ave S,Burien,WA,98168
20,48981983,15220 27th Ave SW,Burien,WA,98166
21,48806220,2440 SW 170th St,Burien,WA,98166
22,48651596,12919 3rd Ave SW,Burien,WA,98146
23,48943400,13635 Occidental Ave S,Burien,WA,98168
24,48908161,1200 SW 160th St,Burien,WA,98166
25,48754682,14841 8th Ave S,Burien,WA,98168
26,48934911,14322 11th Ave SW,Burien,WA,98166
27,48805513,3021 SW 116th Pl,Burien,WA,98146
28,48822814,14054 6th Ave S,Burien,WA,98168
29,2141499631,17430 Ambaum Blvd S APT 47,Seattle,WA,98148
30,48981967,15243 Maplewild Ave SW,Burien,WA,98166
31,49054880,1445 SW 129th St,Burien,WA,98146
32,48839738,16239 10th Ave SW,Burien,WA,98166
33,49049662,11809 18th Ave SW,Burien,WA,98146
34,48754699,14970 5th Ave S,Burien,WA,98168
35,48806242,16040 19th Ave SW,Burien,WA,98166
36,48877495,11633 18th Ave SW,Burien,WA,98146
37,48653269,13221 12th Ave S,Burien,WA,98168
38,48657995,17404 Ambaum Blvd S APT 203,Seattle,WA,98148
39,48734288,13442 6th Ave S,Burien,WA,98168
40,48939284,327 S 184th St,Burien,WA,98148
41,89823682,15100 6th Ave SW UNIT 731,Burien,WA,98166
42,48839768,16256 9th Ave SW,Burien,WA,98166
43,2101311789,369 S 163rd St,Burien,WA,98148
44,48712377,15814 10th Ave SW,Burien,WA,98166
45,48973302,4416 Dayton Ave N,Seattle,WA,98103
46,48998252,106 NW 42nd St,Seattle,WA,98107
47,2103659430,417 N 50th St,Seattle,WA,98103
48,49139723,323 N 46th St,Seattle,WA,98103
49,58382681,3652 Dayton Ave N,Seattle,WA,98103
50,49141106,226 NW 50th St,Seattle,WA,98107
51,80117029,3601 Fremont Ave N # 1,Seattle,WA,98103
52,49090133,4134 1st Ave NW,Seattle,WA,98107
53,48769244,914 N 40th St,Seattle,WA,98103
54,68474212,209 N 39th St APT 302,Seattle,WA,98103
55,2136199209,406 N 45th St APT 202,Seattle,WA,98103
56,48771412,3632 1st Ave NW,Seattle,WA,98107
57,49141103,5012 3rd Ave NW,Seattle,WA,98107
58,49090768,500 NW Bright St,Seattle,WA,98107
59,61766907,4310 Dayton Ave N APT 203,Seattle,WA,98103
60,48998324,4241 Palatine Ave N,Seattle,WA,98103
61,48998346,4223 Greenwood Ave N,Seattle,WA,98103
62,82239721,3632 Palatine Ave N # A,Seattle,WA,98103
63,48722917,120 NW 40th St,Seattle,WA,98107
64,63563403,4516 Linden Ave N,Seattle,WA,98103
65,48769064,415 N 42nd St,Seattle,WA,98103
66,49084510,402 N 44th St,Seattle,WA,98103
67,48769080,4037 Dayton Ave N,Seattle,WA,98103
68,48907466,4000 Midvale Ave N,Seattle,WA,98103
69,48907449,3925 Midvale Ave N,Seattle,WA,98103
70,49141527,818 S 272nd St,Des Moines,WA,98198
71,48983450,425 S 193rd St,Des Moines,WA,98148
72,48696985,1611 S 258th St,Des Moines,WA,98198
73,48650157,22700 28th Ave S APT 307,Des Moines,WA,98198
74,49013262,25818 15th Ave S,Des Moines,WA,98198
75,49065732,1904 S 259th St,Des Moines,WA,98198
76,48821492,21831 30th Ave S,Des Moines,WA,98198
77,49027798,1205 S 226th St,Des Moines,WA,98198
78,48677367,1619 S 223rd St,Des Moines,WA,98198
80,48969097,2614 S 226th St APT B302,Des Moines,WA,98198
81,49021171,28313 Redondo Way S APT 108,Des Moines,WA,98198
82,48851820,28794 Redondo Beach Dr S,Des Moines,WA,98198
83,49141416,26431 Marine View Dr S,Des Moines,WA,98198
84,49042637,1204 S 259th Pl,Des Moines,WA,98198
85,49065750,25746 18th Ave S,Des Moines,WA,98198
86,48773288,819 S 231st St,Des Moines,WA,98198
87,49013771,24019 23rd Ave S,Des Moines,WA,98198
88,48749603,1608 S 254th Pl,Des Moines,WA,98198
89,49129402,22987 Marine View Dr S APT D212,Des Moines,WA,98198
90,49129401,22989 Marine View Dr S APT D211,Des Moines,WA,98198
91,49137023,22005 6th Ave S APT 304,Des Moines,WA,98198
92,58384510,22810 30th Ave S,Des Moines,WA,98198
93,48953765,1019 S 197th St,Des Moines,WA,98148
94,49021151,27802 10th Ave S,Des Moines,WA,98198
95,48854610,22810 30th Ave S UNIT B102,Des Moines,WA,98198
96,2101692672,24431 11th Ave S,Des Moines,WA,98168
97,48690953,1309 S 208th St,Des Moines,WA,98198
98,48939214,19411 10th Ave S,Des Moines,WA,98148
99,48951412,601 S 227th St APT 411S,Des Moines,WA,98198
101,49141465,1405 S 268th St,Des Moines,WA,98198
102,49141587,27030 14th Ave S,Des Moines,WA,98198
103,49065916,22315 6th Ave S UNIT A104,Des Moines,WA,98198
104,49065919,22315 6th Ave S UNIT A107,Des Moines,WA,98198
105,48809775,24718 14th Ave S,Des Moines,WA,98198
106,49067076,21003 6th Ave S,Des Moines,WA,98198
107,48749578,1649 S 255th Pl,Des Moines,WA,98198
108,49081994,701 S 197th St,Des Moines,WA,98148
109,48839054,20709 9th Ave S,Des Moines,WA,98198
110,48851873,28009 13th Ave S,Des Moines,WA,98198
111,2101512429,28313 Redondo Way S. #210,Des Moines,WA,98198
112,49077025,7503 5th Ave NE,Seattle,WA,98115
113,49118666,2110 N 77th St,Seattle,WA,98103
114,48966996,1116 N 76th St,Seattle,WA,98103
115,49008494,7757 Sunnyside Ave N,Seattle,WA,98103
116,48795704,8221 Corliss Ave N,Seattle,WA,98103
117,67704851,401 NE 71st St APT 603,Seattle,WA,98115
118,48833237,7423 Sunnyside Ave N,Seattle,WA,98103
119,84634240,7916 Ashworth Ave N,Seattle,WA,98103
120,70585223,1736 NW 59th St # B,Seattle,WA,98107
121,63335794,2410 NW 59th St # A,Seattle,WA,98107
122,49048969,17011 35th Ave SW,Burien,WA,98166
123,48823200,1737 NW 62nd St,Seattle,WA,98107
124,2103184456,2018 Nw 57th #602,Seattle,WA,98107
125,84759478,5440 Leary Ave NW UNIT 526,Seattle,WA,98107
126,2102027315,2043A NW 64th St,Seattle,WA,98107
127,48823195,1548 NW 61st St,Seattle,WA,98107
128,2101946267,2018 NW 57th St APT 202,Seattle,WA,98107
129,2101393141,5703 20th Ave NW,Seattle,WA,98107
130,49063774,6608 Beacon Ave S,Seattle,WA,98108
131,122075126,5930 30th Ave S,Seattle,WA,98108
132,48863913,6505 33rd Ave S,Seattle,WA,98118
133,60973559,1858 S Bennett Dr,Seattle,WA,98108
134,48744296,3018 S Graham St,Seattle,WA,98108
135,48999764,5412 25th Ave S,Seattle,WA,98108
136,48949809,4815 13th Ave S,Seattle,WA,98108
137,80261009,1722 S Bennett St,Seattle,WA,98108
138,48779266,5401 20th Ave S,Seattle,WA,98108
139,49063596,5911 28th Ave S,Seattle,WA,98108
140,48750696,5916 18th Ave S,Seattle,WA,98108
141,89210223,2845 S Alaska Pl,Seattle,WA,98108
142,48889318,1736 S Shelton St,Seattle,WA,98108
143,48887720,2316 S Ferdinand St,Seattle,WA,98108
144,48776910,4920 26th Ave S,Seattle,WA,98108
145,48822352,1112 S Dawson St,Seattle,WA,98108
146,48955553,2835 S Alaska St # A,Seattle,WA,98108
147,48779365,4852 19th Ave S,Seattle,WA,98108
148,48702761,17400 NE 12th St,Bellevue,WA,98008
149,2101209147,500 106th Ave NE UNIT 2213,Bellevue,WA,98004
150,48912750,16237 SE 7th St,Bellevue,WA,98008
151,48815657,17225 SE 40th Ct,Bellevue,WA,98008
152,48784090,4071 155th Ave SE,Bellevue,WA,98006
153,48783995,4025 151st Ave SE,Bellevue,WA,98006
154,49064234,2535 10th Ave W,Seattle,WA,98119
155,48865485,6322 108th Ave SE,Bellevue,WA,98006
156,48979194,5309 125th Ave SE,Bellevue,WA,98006
157,2101281366,15214 Ne 8th Street #G-22,Bellevue,WA,98007
158,49035050,1274 167th Ave SE,Bellevue,WA,98008
159,2101261489,14707 44th Place Ne #Q7,Bellevue,WA,98007
160,63563002,301 W Raye St APT 209,Seattle,WA,98119
161,49029390,10400 NE 32nd Pl,Bellevue,WA,98004
162,48915640,16564 SE 19th St,Bellevue,WA,98008
163,49096501,4407 137th Ave NE,Bellevue,WA,98005
164,48876351,4546 153rd Ave SE,Bellevue,WA,98006
165,2101282824,15406 Ne 15th Place #C - 14,Bellevue,WA,98007
166,49142213,2390 130th Ave SE,Bellevue,WA,98005
167,48807129,848 173rd Ave NE,Bellevue,WA,98008
168,72498875,11058 NE 33rd Pl # B9,Bellevue,WA,98004
169,48814672,5423 134th Ave SE,Bellevue,WA,98006
170,2101220404,14405 NE 32nd St APT K303,Bellevue,WA,98007
171,48966657,9201 SE Shoreland Dr,Bellevue,WA,98004
172,49059068,17206 SE 46th St,Bellevue,WA,98006
173,48784529,3765 148th Ave SE,Bellevue,WA,98006
174,49113619,16789 SE 49th St,Bellevue,WA,98006
175,49040419,17218 SE 42nd Pl,Bellevue,WA,98006
176,48980412,12309 SE 46th Ct,Bellevue,WA,98006
177,48660007,16106 SE 24th St,Bellevue,WA,98008
178,49014773,2447 4th Ave W,Seattle,WA,98119
179,49035067,16639 SE 14th St,Bellevue,WA,98008
180,2101329186,10932 NE 37th Pl # 2,Bellevue,WA,98004
181,2101199692,10650 Ne 9th Pl #UNIT 5209,Bellevue,WA,98004
182,48913328,119 162nd Ave SE,Bellevue,WA,98008
183,49080707,9815 NE 30th St,Bellevue,WA,98004
184,48963018,2500 118th Ave SE APT 16-203,Bellevue,WA,98005
185,48746907,13015 SE 46th St,Bellevue,WA,98006
186,2101929391,700-702 143rd Pl. Se.,Bellevue,WA,98007
187,48912840,16422 SE 8th St,Bellevue,WA,98008
188,48667123,1023 143rd Ave SE,Bellevue,WA,98007
189,2105629501,10700 NE 4th St UNIT 2312,Bellevue,WA,98004
190,49063103,14338 Somerset Blvd SE,Bellevue,WA,98006
191,48691574,2521 103rd Ave SE,Bellevue,WA,98004
192,48683604,2302 103rd Ave NE,Bellevue,WA,98004
193,82366295,3911 Lake Washington Blvd SE # B-30,Bellevue,WA,98006
194,48931595,16356 SE 40th St,Bellevue,WA,98006
195,72497453,11052 NE 33rd Pl APT A7,Bellevue,WA,98004
196,48978340,43 Skagit Ky,Bellevue,WA,98006
197,48661536,2629 106th Ave NE,Bellevue,WA,98004
198,2123477342,14640 NE 32nd St APT D4,Bellevue,WA,98007
199,48922323,4808 162nd Pl SE,Bellevue,WA,98006
200,49069121,1820 154th Ave SE,Bellevue,WA,98007
201,48663229,14517 NE 40th St APT F104,Bellevue,WA,98007
202,49015851,4420 146th Pl NE APT P3,Bellevue,WA,98007
203,48927668,4152 178th Ln SE APT 4,Bellevue,WA,98008
204,2112061219,10925 NE 37th Pl APT 4,Bellevue,WA,98004
205,49128658,13606 SE 53rd Pl,Bellevue,WA,98006
206,48781221,14905 SE 49th St,Bellevue,WA,98006
207,48685233,15875 NE 25th Pl,Bellevue,WA,98008
208,49055529,2403 161st Ave NE,Bellevue,WA,98008
209,48914604,424 174th Pl NE,Bellevue,WA,98008
210,48997905,1420 153rd Ave NE APT B389,Bellevue,WA,98007
211,48784042,4123 153rd Ave SE,Bellevue,WA,98006
212,49088730,1619 180th Ave NE,Bellevue,WA,98008
213,82366465,3911 Lake Washington Blvd SE # E-13,Bellevue,WA,98006
214,49105505,1840 145th Pl SE,Bellevue,WA,98007
215,48727760,10711 NE 19th Pl,Bellevue,WA,98004
216,2101656195,12613 SE 41st Pl APT E106,Bellevue,WA,98006
217,48932911,14045 SE 18th Pl,Bellevue,WA,98007
218,72498692,11056 NE 33rd Pl APT C3,Bellevue,WA,98004
219,49037119,1074 W Lake Sammamish Pkwy NE,Bellevue,WA,98008
220,49080816,2416 98th Ave NE,Bellevue,WA,98004
221,48710073,624 129th Pl NE,Bellevue,WA,98005
222,49080977,6511 155th Ave SE,Bellevue,WA,98006
223,82366047,3911 Lake Washington Blvd SE # B-49,Bellevue,WA,98006
224,72499573,430 Bellevue Way SE APT 101,Bellevue,WA,98004
225,49128596,13611 SE 56th Pl,Bellevue,WA,98006
226,48683504,952 100th Ave NE # 41,Bellevue,WA,98004
227,49080752,9836 NE 28th St,Bellevue,WA,98004
228,48785943,6357 114th Ave SE,Bellevue,WA,98006
229,122962768,4288 131st Pl SE,Bellevue,WA,98006
230,58374881,1100 106th Ave NE APT 801,Bellevue,WA,98004
231,2101428144,4210 Factoria Blvd SE APT A10,Bellevue,WA,98006
232,2101544620,500 106th Ave NE UNIT 1301,Bellevue,WA,98004
233,49031509,1922 109th Ave SE,Bellevue,WA,98004
234,82364810,4515 125th Ave SE # B105,Bellevue,WA,98006
235,2101556436,1019 156th Ave NE APT B5,Bellevue,WA,98007
236,48674539,2443 137th Ave SE,Bellevue,WA,98005
237,48912936,16633 SE 9th St,Bellevue,WA,98008
238,48675675,1616 103rd Ave SE,Bellevue,WA,98004
252,48981984,15212 27th Ave SW,Burien,WA,98166
256,84760792,17433 Sylvester Rd SW,Burien,WA,98166
260,48712178,14435 6th Ave S,Burien,WA,98168
265,48724913,711 12th Ave E,Seattle,WA,98102
266,48790019,1819 17th Ave APT 1,Seattle,WA,98122
267,48725239,1159 17th Ave E,Seattle,WA,98112
268,67685683,1420 E Pine St UNIT 710,Seattle,WA,98122
269,48754792,131 Bellevue Ave E APT 401,Seattle,WA,98102
270,79977140,410 21st Ave E,Seattle,WA,98112
271,65229076,1700 Bellevue Ave UNIT 304,Seattle,WA,98122
272,48819627,232 Belmont Ave E APT 606,Seattle,WA,98102
273,65230373,1806 15th Ave # B,Seattle,WA,98122
274,48818955,955 10th Ave E,Seattle,WA,98102
275,2104616497,1708 14th Ave,Seattle,WA,98122
276,48826190,411 Boylston Ave E APT 108,Seattle,WA,98102
277,108801719,1802 E John St,Seattle,WA,98112
278,79520310,400 Melrose Ave E APT 607,Seattle,WA,98102
279,49072197,404 E Harrison St APT 201,Seattle,WA,98102
280,2103690552,1614 Summit Ave #S-505,Seattle,WA,98122
281,2103548570,505 E Denny Way APT 207,Seattle,WA,98122
282,65229180,1804 15th Ave # A,Seattle,WA,98122
283,118557153,730 Boylston Ave E APT A,Seattle,WA,98102
284,48989106,730 Belmont Ave E APT 1,Seattle,WA,98102
285,48725511,1217 24th Ave E,Seattle,WA,98112
286,83228026,427 13th Ave E APT A,Seattle,WA,98102
287,48725103,1715 E Roy St,Seattle,WA,98112
288,2115164676,325 Harvard Ave E APT 301,Seattle,WA,98102
289,58386475,215 20th Ave E APT 104,Seattle,WA,98112
290,48724886,957 12th Ave E,Seattle,WA,98102
291,82363926,756 Broadway E APT 104,Seattle,WA,98102
292,48725484,1103 20th Ave E,Seattle,WA,98112
293,48886589,530 Melrose Ave E APT 101,Seattle,WA,98102
294,48976103,1110 E Denny Way,Seattle,WA,98122
295,72495182,1125 E Olive St APT 502,Seattle,WA,98122
296,2124190651,1410 E Pine St UNIT W324,Seattle,WA,98122
297,2126244921,1812 19th Ave APT 305,Seattle,WA,98122
298,48819603,232 Belmont Ave E APT 303,Seattle,WA,98102
299,48821223,516 E Thomas St APT 304,Seattle,WA,98102
300,68478240,1711 E Olive Way APT 501,Seattle,WA,98102
301,48886333,1727 15th Ave NE,Issaquah,WA,98029
302,49080003,4461 245th Pl SE,Issaquah,WA,98029
303,48817101,16119 Issaquah Hobart Rd SE,Issaquah,WA,98027
304,49111906,5000 NW Village Park Dr APT B115,Issaquah,WA,98027
305,49142919,390 Datewood Ct NW,Issaquah,WA,98027
306,68477844,18707 SE Newport Way APT 110,Issaquah,WA,98027
307,48905147,24923 SE 42nd Dr,Issaquah,WA,98029
308,48968787,14910 245th Ave SE,Issaquah,WA,98027
309,49081604,25235 SE Klahanie Blvd APT A304,Issaquah,WA,98029
310,49016278,4461 238th Pl SE,Issaquah,WA,98029
311,66650234,2738 NE Magnolia St,Issaquah,WA,98029
312,80261330,2319 NE Park Dr,Issaquah,WA,98029
313,48746362,13759 223rd Ave SE,Issaquah,WA,98027
314,48779452,22720 SE 56th St,Issaquah,WA,98029
315,49096224,4346 252nd Pl SE,Issaquah,WA,98029
316,63068244,595 Newport Way NW APT B4,Issaquah,WA,98027
318,48859736,22484 SE 38th Ter # 2348,Issaquah,WA,98029
319,48797738,26609 SE 146th St,Issaquah,WA,98027
320,2124377668,4496 248th Ln SE,Issaquah,WA,98029
321,48686857,19523 SE May Valley Rd,Issaquah,WA,98027
322,2101213901,770 Big Tree Drive Nw,Issaquah,WA,98027
323,96646402,19031 SE May Valley Rd,Issaquah,WA,98027
324,60972246,1789 30th Ave NE,Issaquah,WA,98029
325,48730809,25521 SE Issaquah Fall City Rd,Issaquah,WA,98029
326,48903903,4312 246th Pl SE,Issaquah,WA,98029
327,2139073365,2570 NE Julep St,Issaquah,WA,98029
328,70582179,1538 24th Ave NE,Issaquah,WA,98029
329,48730813,25333 SE Issaquah Fall City Rd,Issaquah,WA,98029
330,48827989,3233 241st Ave SE,Issaquah,WA,98029
331,48903892,24647 SE 44th St,Issaquah,WA,98029
333,48700426,12120 Issaquah Hobart Rd SE,Issaquah,WA,98027
334,49142742,735 Kalmia Ct NW,Issaquah,WA,98027
335,49111831,5000 NW Village Park Dr APT D124,Issaquah,WA,98027
336,49133266,758 Sunrise Pl SW,Issaquah,WA,98027
337,54410571,23300 SE Black Nugget Rd UNIT C3,Issaquah,WA,98029
338,48903590,24236 SE 43rd Pl,Issaquah,WA,98029
339,48792467,15631 Issaquah Hobart Rd SE,Issaquah,WA,98027
340,48904667,25539 SE 41st Ct,Issaquah,WA,98029
341,48729931,25525 SE Tiger Mountain Rd,Issaquah,WA,98027
342,116542855,1620 14th Pl NE,Issaquah,WA,98029
343,48970421,18106 NW Montreux Dr,Issaquah,WA,98027
344,111705037,160 6th Ave SE,Issaquah,WA,98027
345,48968792,24622 SE Mirrormont Blvd,Issaquah,WA,98027
346,117643411,1643 14th Pl NE,Issaquah,WA,98029
347,2109001110,1736 10th Ave NE UNIT 110,Issaquah,WA,98029
348,48817152,16313 258th Ave SE,Issaquah,WA,98027
349,48729904,13516 251st Ave SE,Issaquah,WA,98027
350,49142829,960 NW Inneswood Pl,Issaquah,WA,98027
351,48769508,9303 240th Ave SE,Issaquah,WA,98027
352,80260381,1725 25th Walk NE,Issaquah,WA,98029
353,72497117,2919 275th Ave SE,Sammamish,WA,98075
354,48792439,25801 SE 144th Pl,Issaquah,WA,98027
355,117488031,1617 14th Pl NE,Issaquah,WA,98029
356,49085105,20404 SE 136th St,Issaquah,WA,98027
357,49079958,24717 SE 45th Pl,Issaquah,WA,98029
358,48837657,1790 Newport Way NW,Issaquah,WA,98027
359,60963713,1782 11th Ave NE,Issaquah,WA,98029
360,48794392,60 SE Bush St,Issaquah,WA,98027
361,48903881,4321 246th Pl SE,Issaquah,WA,98029
362,61766619,1848 NE Kenyon Ct,Issaquah,WA,98029
363,67683724,27518 SE 28th Pl,Sammamish,WA,98075
364,80119423,25025 SE Klahanie Blvd,Issaquah,WA,98029
365,112898481,1391 NE Hickory Ln,Issaquah,WA,98029
366,62944379,1937 NE Kenyon Ct,Issaquah,WA,98029
367,48955447,450 NE Alder St,Issaquah,WA,98027
368,82365220,700 Front St S UNIT B209,Issaquah,WA,98027
369,2101390850,2143 N. Northlake Way #30,Seattle,WA,98103
370,49099139,2001 Westlake Ave N UNIT 34,Seattle,WA,98109
371,92569158,1920 4th Ave UNIT 2407,Seattle,WA,98101
372,65227525,2717 Western Ave APT 1120,Seattle,WA,98121
373,49114645,829 21st Ave,Seattle,WA,98122
374,48936683,8526 2nd Ave NE,Seattle,WA,98115
375,2101780487,588 Bell St UNIT 311,Seattle,WA,98121
376,48789443,1408 N 36th St,Seattle,WA,98103
377,49015134,3040 11th Ave W,Seattle,WA,98119
378,63094902,8503 Interlake Ave N # B,Seattle,WA,98103
379,48963596,911 Nob Hill Ave N,Seattle,WA,98109
380,82365900,901 NE 43rd St APT 107,Seattle,WA,98105
381,2101370549,3304 Fuhrman Ave E # 10,Seattle,WA,98102
382,63925010,11 E Allison St # 3,Seattle,WA,98102
384,65228606,4022 Stone Way N,Seattle,WA,98103
385,48920152,3503 Wallingford Ave N,Seattle,WA,98103
386,49099140,2001 Westlake Ave N UNIT 35,Seattle,WA,98109
387,63335384,63 Etruria St APT C,Seattle,WA,98109
388,49102202,1604 Aurora Ave N,Seattle,WA,98109
389,63335434,3217 Eastlake Ave E,Seattle,WA,98102
390,48928726,4188 42nd Ave NE,Seattle,WA,98105
391,72494668,2423 8th Ave N APT 401,Seattle,WA,98109
392,89209562,2960 Eastlake Ave E APT 204,Seattle,WA,98102
393,88877513,401 9th Ave N APT 101,Seattle,WA,98109
394,80110667,125 Warren Ave N,Seattle,WA,98109
395,80259552,3128 Franklin Ave E # B,Seattle,WA,98102
396,58383114,1400 Hubbell Pl APT 1112,Seattle,WA,98101
397,48861113,912 3rd Ave W APT 503,Seattle,WA,98119
398,96660547,2116 W Ruffner St,Seattle,WA,98199
399,49034868,3430 W Viewmont Way W,Seattle,WA,98199
400,92571423,3841 34th Ave W UNIT B,Seattle,WA,98199
401,49110915,3602 38th Ave W,Seattle,WA,98199
402,48787943,3947 W Barrett Ln,Seattle,WA,98199
403,48855572,3214 43rd Ave W,Seattle,WA,98199
404,48824938,2840 22nd Ave W,Seattle,WA,98199
405,48727148,2844 43rd Ave W,Seattle,WA,98199
406,48824807,3432 23rd Ave W,Seattle,WA,98199
407,48880378,2724 W Blaine St,Seattle,WA,98199
408,48824958,2853 21st Ave W,Seattle,WA,98199
409,96676240,2120 W Ruffner St,Seattle,WA,98199
410,49009891,3037 34th Ave W,Seattle,WA,98199
411,48942946,3611 43rd Ave W,Seattle,WA,98199
412,49009468,3616 34th Ave W,Seattle,WA,98199
413,48825617,2438 W Lynn St,Seattle,WA,98199
414,2101683958,3608 26th Place W #401,Seattle,WA,98199
415,48726265,2323 Perkins Ln W APT A,Seattle,WA,98199
416,48726264,2333 Perkins Ln W,Seattle,WA,98199
417,48942894,3625 Magnolia Blvd W,Seattle,WA,98199
418,2137318473,2120 W Ruffner St,Seattle,WA,98199
419,48943387,2625 28th Ave W,Seattle,WA,98199
420,2108084014,3831 25th Ave W,Seattle,WA,98199
421,48943274,3007 38th Ave W,Seattle,WA,98199
422,49013136,4012 30th Ave W,Seattle,WA,98199
423,48677293,5435 40th Ave W,Seattle,WA,98199
424,48727073,2546 36th Ave W,Seattle,WA,98199
425,48942772,3615 W Fulton St,Seattle,WA,98199
426,48700921,5443 45th Ave W,Seattle,WA,98199
427,48702904,2636 40th Ave W,Seattle,WA,98199
428,48855646,3057 42nd Ave W,Seattle,WA,98199
429,80113356,3045 20th Ave W APT 403,Seattle,WA,98199
430,60972341,3302 W Government Way APT C,Seattle,WA,98199
431,2101457699,14633 Ne 31st St #9B,Bellevue,WA,98007
432,48860728,17431 Ambaum Blvd S UNIT B9,Seattle,WA,98148
434,58382623,23420 SE Black Nugget Rd UNIT A101,Issaquah,WA,98029
435,48975426,200 Mt Pilchuck Ave SW,Issaquah,WA,98027
436,48968662,25125 SE Mirrormont Pl,Issaquah,WA,98027
437,63215234,2351 30th Ave NE,Issaquah,WA,98029
438,2101780481,588 Bell St UNIT 1006,Seattle,WA,98121
439,48727115,2127 33rd Ave W,Seattle,WA,98199
440,49021774,10507 164th Ave NE,Redmond,WA,98052
441,2101331930,6049 139th Ave Ne ##146,Redmond,WA,98052
442,63068291,8814 228th Way NE,Redmond,WA,98053
443,49058586,6448 138th Ave NE APT 402,Redmond,WA,98052
444,48768324,3041 W Lake Sammamish Pkwy NE,Redmond,WA,98052
445,67685592,16275 NE 85th St APT 213,Redmond,WA,98052
446,49043305,2539 174th Ave NE,Redmond,WA,98052
447,2126663308,10729 221st Ln NE,Redmond,WA,98053
448,49058685,6347 137th Ave NE APT 269,Redmond,WA,98052
449,2101998073,8015 145th Ave NE,Redmond,WA,98052
450,49088003,13727 NE 76th Pl,Redmond,WA,98052
451,2144722009,15820 NE 90th Way,Redmond,WA,98052
452,48878822,25206 NE 108th St,Redmond,WA,98053
453,48862322,22316 NE 111th Pl,Redmond,WA,98053
454,2111611867,15971 NE 95th Way,Redmond,WA,98052
455,48817807,24610 NE 126th St,Duvall,WA,98019
456,2145149477,15291 NE 82nd St UNIT 304,Redmond,WA,98052
457,58383945,17112 NE 115th Way,Redmond,WA,98052
458,48807681,16702 NE 128th St,Redmond,WA,98052
459,49068631,6307 151st Ave NE,Redmond,WA,98052
460,48797803,16319 NE 44th Ct,Redmond,WA,98052
461,49033848,9114 159th Pl NE # 403,Redmond,WA,98052
462,92570805,15151 NE 81st Way UNIT 106,Redmond,WA,98052
463,119637573,11727 170th Ct NE,Redmond,WA,98052
464,58386148,7912 170th Ave NE UNIT 305,Redmond,WA,98052
465,48737921,8236 172nd Ave NE,Redmond,WA,98052
466,58759206,5940 189th Pl NE,Redmond,WA,98052
467,49054540,6121 140th Ct NE,Redmond,WA,98052
468,48724246,22528 NE 39th Way,Redmond,WA,98053
469,68016611,23916 NE 115th Ln,Redmond,WA,98053
470,61481453,22627 NE Alder Crest Dr UNIT 203,Redmond,WA,98053
471,2101328787,6741 137th Place Ne #460,Redmond,WA,98052
472,89208698,11042 183rd Pl NE,Redmond,WA,98052
473,70584321,23916 NE 115th Ln,Redmond,WA,98053
474,49088454,4811 158th Ct NE,Redmond,WA,98052
475,48739715,3012 173rd Ct NE,Redmond,WA,98052
476,2101209124,4120 236th Avenue Ne,Redmond,WA,98053
477,49111164,17104 NE 45th St APT 8,Redmond,WA,98052
478,49061900,11024 166th Pl NE,Redmond,WA,98052
479,2101281374,10176 156th Court Ne #102,Redmond,WA,98052
480,61260773,9006 229th Pl NE,Redmond,WA,98053
481,84759563,17401 NE 116th Way,Redmond,WA,98052
482,84757164,16693 NE 121st Way,Redmond,WA,98052
483,49088921,18312 NE 20th St,Redmond,WA,98052
484,48843844,3213 175TH Ct NE,REDMOND,WA,98052
485,48763312,14014 NE 71st Pl,Redmond,WA,98052
486,48948450,8412 139th Ave NE,Redmond,WA,98052
487,96664266,12455 240th Pl NE,Redmond,WA,98053
488,2104476029,11880 176th Ave NE,Redmond,WA,98052
489,48649997,16702 NE 103rd Pl,Redmond,WA,98052
490,48649743,11020 169th Pl NE,Redmond,WA,98052
491,2102301773,3655 West Ames Lake Drive Ne,Redmond,WA,98053
492,48731285,25828 NE 42nd Pl,Redmond,WA,98053
493,48676307,16680 NE 88th St,Redmond,WA,98052
494,48731283,25517 NE 42nd Pl,Redmond,WA,98053
495,49043890,3324 181st Pl NE,Redmond,WA,98052
496,48827504,18407 NE 27th Way,Redmond,WA,98052
497,2101800593,3211 E Ames Lake Dr NE,Redmond,WA,98053
498,49107303,9735 159th Pl NE,Redmond,WA,98052
499,48735675,8003 145th Ave NE # C18,Redmond,WA,98052
500,49084131,13328 NE 117th Way,Redmond,WA,98052
501,61096534,9208 226th Pl NE,Redmond,WA,98053
502,48794687,11521 167th Pl NE,Redmond,WA,98052
503,48660316,24410 NE 80th St,Redmond,WA,98053
504,48807683,13120 167th Ave NE,Redmond,WA,98052
505,68478146,23664 NE 135th Way,Redmond,WA,98053
506,49033813,9002 159th Pl NE # 704,Redmond,WA,98052
507,2120666906,17464 NE 38th St APT B202,Redmond,WA,98052
508,49068652,6417 152nd Ave NE,Redmond,WA,98052
509,49045791,9703 171st Ave NE,Redmond,WA,98052
510,2114564983,17422 NE 40th Pl,Redmond,WA,98052
511,48847770,17251 NE 36th St,Redmond,WA,98052
512,89208351,15160 NE 81st Way UNIT 103,Redmond,WA,98052
513,61306240,9265 227th Ave NE,Redmond,WA,98053
514,2135374167,8653 Avondale Rd NE APT B303,Redmond,WA,98052
515,48894405,6823 207th Ave NE,Redmond,WA,98053
516,2103032307,18268 NE 97th Way UNIT 105,Redmond,WA,98052
517,60972857,9650 222nd Ct NE,Redmond,WA,98053
518,48701346,6611 238th Ave NE,Redmond,WA,98053
519,54830796,22469 NE 102nd Pl,Redmond,WA,98053
520,68481171,23031 NE 139th Ct,Redmond,WA,98053
521,2104476017,11848 176th Ave NE,Redmond,WA,98052
522,49095168,4050 W Lake Sammamish Pkwy NE UNIT 3,Redmond,WA,98052
523,49043258,2714 174th Ave NE,Redmond,WA,98052
524,63339893,6505 188th Pl NE UNIT 106,Redmond,WA,98052
525,2105653651,6838 137th Ave NE # 661,Redmond,WA,98052
526,49126421,10108 218th Ct NE,Redmond,WA,98053
527,49133653,6220 145th Ave NE,Redmond,WA,98052
528,80110653,23865 NE 112th Cir UNIT 2,Redmond,WA,98053
529,80116741,11050 Avondale Rd NE,Redmond,WA,98052
530,2101347640,6479 137th Ave Ne ##359,Redmond,WA,98052
531,108799211,7912 170th Ave NE UNIT 105,Redmond,WA,98052
532,48752430,20410 NE 50th St,Redmond,WA,98053
533,48658606,3515 289th Ave NE,Redmond,WA,98053
534,48676029,21041 NE 85th St,Redmond,WA,98053
535,48926240,3834 175th Ave NE APT 65,Redmond,WA,98052
536,68476580,10630 155th Pl NE,Redmond,WA,98052
537,48948539,13725 NE 87th St,Redmond,WA,98052
538,2111989497,15853 NE 95th Way,Redmond,WA,98052
539,61950392,12423 235th Pl NE,Redmond,WA,98053
540,48842763,18728 NE 128th Way,Redmond,WA,98052
541,48768341,2949 W Lake Sammamish Pkwy NE,Redmond,WA,98052
542,48684355,6203 143rd Ave NE,Redmond,WA,98052
543,2101981077,18425 Ne 95th St. #217,Redmond,WA,98052
544,48926239,3834 175th Ave NE APT 64,Redmond,WA,98052
545,49054480,14001 NE 61st St,Redmond,WA,98052
546,48794676,11518 165th Ct NE,Redmond,WA,98052
547,84758528,11070 Elliston Way NE,Redmond,WA,98053
548,48731654,4314 268th Ave NE,Redmond,WA,98053
549,84760923,16772 NE 86th Ct,Redmond,WA,98052
550,2105381294,17803 NE 93rd Way UNIT 1,Redmond,WA,98052
551,49000399,13451 110th Pl NE,Kirkland,WA,98034
552,48901922,514 10th Ave W,Kirkland,WA,98033
553,48902482,11428 NE 87th St,Kirkland,WA,98033
554,48892375,11162 Champagne Point Rd NE,Kirkland,WA,98034
555,72496547,11311 NE 128th St APT D201,Kirkland,WA,98034
556,2103168443,10325 Slater Ave NE,Kirkland,WA,98033
557,79978348,12424 NE 70th St,Kirkland,WA,98033
558,72499907,220 1st St APT 203,Kirkland,WA,98033
559,48760996,9302 NE 123rd Ct,Kirkland,WA,98034
560,48699460,10121 NE 124th Pl # 503,Kirkland,WA,98034
561,49096856,12412 NE 108th Pl,Kirkland,WA,98033
562,2102188820,4605 Lake Washington Blvd NE UNIT 201,Kirkland,WA,98033
563,48907863,9721 111th Ave NE,Kirkland,WA,98033
564,49015193,15227 116th Pl NE,Kirkland,WA,98034
565,48901956,300 10th Ave W,Kirkland,WA,98033
566,48691856,102 6th St S,Kirkland,WA,98033
567,2102180638,12607 100th Lane Ne #L-254,Kirkland,WA,98034
568,48902678,13041 NE 95th St,Kirkland,WA,98033
569,48969981,104 9th Ln # 127,Kirkland,WA,98033
570,2101760749,9904 Ne 142nd Place #C101,Kirkland,WA,98033
571,59698880,14315 123rd Ave NE APT B,Kirkland,WA,98034
572,2126300549,10010 NE 138th Pl APT R1,Kirkland,WA,98034
573,63334907,838 Kirkland Ave,Kirkland,WA,98033
574,2101217235,12708 Ne 144th Street #B 301,Kirkland,WA,98034
575,63334908,836 Kirkland Ave,Kirkland,WA,98033
576,84756600,11514 101st Pl NE,Kirkland,WA,98033
577,48716089,140 18th Ave,Kirkland,WA,98033
578,63562412,215 9th St APT D101,Kirkland,WA,98033
579,48693272,1811 Market St,Kirkland,WA,98033
580,48750831,714 3rd St S,Kirkland,WA,98033
581,2124813441,10023 NE 138th Pl APT C5,Kirkland,WA,98034
582,48901785,121 5th Ave W,Kirkland,WA,98033
583,48729025,12844 NE 84th St,Kirkland,WA,98033
584,2101301801,10022 Ne 127th Place #C-113,Kirkland,WA,98034
585,48855169,8013 NE 115th Way,Kirkland,WA,98034
586,48808214,12701 87th Ct NE,Kirkland,WA,98034
587,49092985,11423 79th Way NE,Kirkland,WA,98034
589,49071933,10721 NE 144th Ct,Kirkland,WA,98034
590,48892488,8430 NE 124th St,Kirkland,WA,98034
591,48715399,9018 116th Ave NE,Kirkland,WA,98033
592,48785736,9920 NE 119th St APT 306,Kirkland,WA,98034
593,49044525,8119 NE 131st St,Kirkland,WA,98034
594,2132846789,11311 Ohde Cir,Kirkland,WA,98033
595,72499560,631 Market St UNIT 307,Kirkland,WA,98033
596,2101349959,12603 95th Place Ne,Kirkland,WA,98034
597,49070350,12704 102nd Ave NE,Kirkland,WA,98034
598,2114680652,12020 100th Ave NE APT M301,Kirkland,WA,98034
599,48891938,13422 87th Ave NE,Kirkland,WA,98034
600,49002606,12950 NE 39th St,Bellevue,WA,98005
601,48842671,11611 91st Pl NE,Kirkland,WA,98034
602,63924998,11103 NE 124th Ln # D113,Kirkland,WA,98034
603,48810075,11303 126th Ave NE,Kirkland,WA,98033
604,49045398,4124 106th Pl NE,Kirkland,WA,98033
605,65221324,12514 NE 65th St,Kirkland,WA,98033
606,48921043,6013 105th Ave NE,Kirkland,WA,98033
607,2103570642,12424 NE 145th St APT C10,Kirkland,WA,98034
608,49136862,11232 NE 141st Pl,Kirkland,WA,98034
609,48667681,11235 80th Ave NE,Kirkland,WA,98034
610,49095715,12808 NE 132nd Pl,Kirkland,WA,98034
611,2101299247,810 19th Lane W,Kirkland,WA,98033
612,48891611,8420 NE 132nd Pl,Kirkland,WA,98034
613,48902208,513 9th Ave,Kirkland,WA,98033
614,2140576096,1834 Market St,Kirkland,WA,98033
615,48925490,6700 104th Ave NE,Kirkland,WA,98033
616,48714705,8122 126th Ave NE,Kirkland,WA,98033
617,48693212,619 14th Ave W,Kirkland,WA,98033
618,2101658039,375 Kirkland Ave ##336,Kirkland,WA,98033
619,48780102,14008 127th Pl NE,Kirkland,WA,98034
620,68479098,11803 100th Ave NE APT A203,Kirkland,WA,98034
621,48892404,11233 Champagne Point Rd NE,Kirkland,WA,98034
622,72494633,10138 NE 137th Pl,Kirkland,WA,98034
623,68479094,11801 100th Ave NE APT A102,Kirkland,WA,98034
624,121994410,9123 NE Juanita Dr UNIT 409,Kirkland,WA,98034
625,48932388,12708 NE 144th St APT B103,Kirkland,WA,98034
626,49096800,13417 72nd Ave NE,Kirkland,WA,98034
627,48827748,11607 72nd Pl NE,Kirkland,WA,98034
628,48716586,726 18th Ave W,Kirkland,WA,98033
629,49095617,6714 Lake Washington Blvd NE APT 7,Kirkland,WA,98033
631,2127183932,9908 NE 124th St APT 904,Kirkland,WA,98034
632,48664009,12721 NE 129th Ct # 102,Kirkland,WA,98034
633,48899096,13002 NE 70th Dr,Kirkland,WA,98033
634,2119492284,11625 NE 90th St,Kirkland,WA,98033
635,48809287,12822 NE 136th St,Kirkland,WA,98034
636,68479108,11809 100th Ave NE APT B204,Kirkland,WA,98034
637,48732908,11332 NE 129th St,Kirkland,WA,98034
638,48891394,12618 109th Ct NE APT H305,Kirkland,WA,98034
639,48902427,510 Market St,Kirkland,WA,98033
640,2103929039,4605 Lake Washington Blvd. Ne #301,Kirkland,WA,98033
641,48892285,8319 NE 110th Pl,Kirkland,WA,98034
642,63336457,12411 109th Ct NE,Kirkland,WA,98034
644,2101457916,8362 NE 140th St,Kirkland,WA,98034
645,48902116,1112 1st St,Kirkland,WA,98033
646,48704110,12204 NE 65th St,Kirkland,WA,98033
647,80113890,11914 82nd Pl NE,Kirkland,WA,98034
648,48994005,8007 NE 126th St,Kirkland,WA,98034
649,48811624,10622 118th Pl NE,Kirkland,WA,98033
650,58385844,12310 NE 92nd St APT H212,Kirkland,WA,98033
651,72498309,10110 NE 60th St APT 101,Kirkland,WA,98033
652,48704205,11907 NE 67th Pl,Kirkland,WA,98033
653,2144685926,447 7th Ave,Kirkland,WA,98033
654,48842650,9307 NE 125th St,Kirkland,WA,98034
655,61767281,11920 98th Ave NE APT 103,Kirkland,WA,98034
656,84762187,9410 117th Ave NE,Kirkland,WA,98033
657,48716821,511 5th Ave W,Kirkland,WA,98033
658,2111250702,11803 100th Ave NE APT A104,Kirkland,WA,98034
659,2136877487,11724 114th Pl NE # 51,Kirkland,WA,98034
661,48716620,1650 10th St W,Kirkland,WA,98033
662,48891314,12412 109th Ct NE APT C303,Kirkland,WA,98034
663,48753361,13007 NE 108th St,Kirkland,WA,98033
664,2103920779,12734 NE 116th Ln APT G12,Kirkland,WA,98034
665,48928524,11104 NE 68th St APT 104,Kirkland,WA,98033
666,49104910,13427 NE 137th Pl,Kirkland,WA,98034
667,48708980,12805 95th Ave NE,Kirkland,WA,98034
668,2108142651,12724 NE 144th St APT E101,Kirkland,WA,98034
669,48714990,11217 NE 100th St,Kirkland,WA,98033
670,48810505,500 Kirkland Ave APT A1,Kirkland,WA,98033
671,2141892241,206 5th Pl S,Kirkland,WA,98033
673,48734156,13012 3rd Ave S,Burien,WA,98168
674,49049068,16031 Maplewild Ave SW,Burien,WA,98166
675,49042245,11901 Ambaum Blvd SW,Burien,WA,98146
676,48767537,459 SW 144th St,Burien,WA,98166
677,72497373,461 N 45th St APT 4,Seattle,WA,98103
678,48769172,4124 Greenwood Ave N,Seattle,WA,98103
679,49139534,707 N 48th St,Seattle,WA,98103
680,48773272,815 S 232nd St,Des Moines,WA,98198
681,70585348,1201 S 237th Ln APT 1802,Des Moines,WA,98198
682,48833151,2115 N 77th St,Seattle,WA,98103
683,48833053,2421 N 75th St,Seattle,WA,98103
684,48795699,8245 Corliss Ave N,Seattle,WA,98103
685,48743516,1507 151st Ave NE,Bellevue,WA,98007
686,49005474,2321 153rd Ave SE,Bellevue,WA,98007
687,48913612,15703 SE 4th St,Bellevue,WA,98008
688,49113403,1028 Belfair Rd,Bellevue,WA,98004
689,49095057,13641 Main St,Bellevue,WA,98005
690,48788051,3026 140th Ave NE,Bellevue,WA,98005
691,49062383,4709 Somerset Dr SE,Bellevue,WA,98006
692,48913679,131 157th Ave NE,Bellevue,WA,98008
693,63231212,63 Etruria St APT A,Seattle,WA,98109
694,48924192,6549 SE Cougar Mountain Way,Bellevue,WA,98006
695,48662813,2405 166th Ave NE,Bellevue,WA,98008
696,48788070,2804 140th Ave NE,Bellevue,WA,98005
697,48680417,9912 SE 16th St,Bellevue,WA,98004
698,58385938,2628 139th Ave SE APT 13,Bellevue,WA,98005
699,49006150,10722 SE 3rd St,Bellevue,WA,98004
700,49142106,12127 SE 15th St,Bellevue,WA,98005
701,48742086,3018 127th Ave NE,Bellevue,WA,98005
702,80127792,111 108th Ave NE UNIT A302,Bellevue,WA,98004
703,63336906,11004 NE 11th St,Bellevue,WA,98004
704,48934702,154 SW 142nd St,Burien,WA,98166
705,49060515,1315 SW 128th St,Burien,WA,98146
707,48724918,712 11th Ave E,Seattle,WA,98102
708,82364725,1408 12th Ave UNIT 307,Seattle,WA,98122
709,48815546,1819 E Denny Way APT 205,Seattle,WA,98122
710,48657101,1610 Lakeview Blvd E,Seattle,WA,98102
711,96698419,812 E Blaine St,Seattle,WA,98102
712,2101631941,1000 Bellevue Place E ##9,Seattle,WA,98102
713,48657911,505 E Denny Way APT 506,Seattle,WA,98122
714,52423404,215 20th Ave E APT 301,Seattle,WA,98112
715,82363915,1408 12th Ave UNIT 502,Seattle,WA,98122
716,49004947,1980 Harvard Ave E,Seattle,WA,98102
717,63336338,3121 NE Norton Ln,Issaquah,WA,98029
718,48837655,1760 Newport Way NW,Issaquah,WA,98027
719,48962055,4552 190th Ave SE,Issaquah,WA,98027
720,63133422,1665 24th Ave NE,Issaquah,WA,98029
721,49043487,18501 SE Newport Way UNIT H237,Issaquah,WA,98027
722,68478636,18707 SE Newport Way APT 305,Issaquah,WA,98027
723,2110120148,1727 11th Ln NE,Issaquah,WA,98029
724,48666949,10912 329th Ct SE,Issaquah,WA,98027
725,70578752,2635 NE Jared Ct,Issaquah,WA,98029
726,49079990,4421 244th Pl SE,Issaquah,WA,98029
727,70582329,3566 NE Harrison Dr,Issaquah,WA,98029
728,63334175,3026 277th Pl SE,Sammamish,WA,98075
729,96673041,2541 NW Alpine Crest Way,Issaquah,WA,98027
730,48811527,1050 1st Pl SE,Issaquah,WA,98027
731,84761099,927 4th Ave NE,Issaquah,WA,98029
732,82365925,2557 NE Park Dr,Issaquah,WA,98029
733,48974962,65 Mt Olympus Dr SW,Issaquah,WA,98027
734,88876893,401 9th Ave N APT 315,Seattle,WA,98109
735,48849169,769 Hayes St APT 504,Seattle,WA,98109
736,50884614,2420 Westlake Ave N UNIT 7,Seattle,WA,98109
737,68478783,1323 Boren Ave APT 503,Seattle,WA,98101
738,49101960,2301 Fairview Ave E UNIT 301,Seattle,WA,98102
739,2105677171,1730 N Northlake Way # B315,Seattle,WA,98103
740,63339069,1525 Taylor Ave N APT 201,Seattle,WA,98109
741,49120585,3010 25th Ave W,Seattle,WA,98199
742,119114083,4400 Brygger Dr W # A,Seattle,WA,98199
743,48731143,3039 31st Ave W,Seattle,WA,98199
744,48943344,2601 31st Ave W,Seattle,WA,98199
745,48995657,7208 148th Ave NE,Redmond,WA,98052
746,2101189226,6890 156th Place Ne,Redmond,WA,98052
747,68481245,23762 NE 134th Pl,Redmond,WA,98053
748,48842764,12625 Avondale Rd NE,Redmond,WA,98052
749,49058312,6702 139th Ave NE APT 743,Redmond,WA,98052
750,2113610468,18282 NE 97th Way UNIT 105,Redmond,WA,98052
751,63039719,8503 230th Way NE,Redmond,WA,98053
752,48701274,6909 143rd Ct NE,Redmond,WA,98052
753,48706058,13409 168th Ave NE,Redmond,WA,98052
754,52916241,22413 NE 102nd Pl,Redmond,WA,98053
755,48807634,16919 NE 122nd St,Redmond,WA,98052
756,2110861060,13233 168th Ave NE,Redmond,WA,98052
757,48839290,7575 Old Redmond Rd # 14,REDMOND,WA,98052
758,96683797,22669 NE Fern Reach Cir,Redmond,WA,98053
759,2101739032,16930 NE 84th Ct,Redmond,WA,98052
760,49020788,15806 NE 111th St,Redmond,WA,98052
761,48807732,12722 167th Pl NE,Redmond,WA,98052
762,48701453,23113 NE 72nd Pl,Redmond,WA,98053
763,49080881,5209 156th Ave NE,Redmond,WA,98052
764,2105514066,6818 137th Ave NE APT 441,Redmond,WA,98052
765,48952401,7250 Old Redmond Rd APT H128,Redmond,WA,98052
766,48696373,21212 NE Union Hill Rd,Redmond,WA,98053
767,48839288,7575 Old Redmond Rd # 12,REDMOND,WA,98052
768,60052030,9941 223rd Ave NE,Redmond,WA,98053
769,48757566,16424 NE 44th Way,Redmond,WA,98052
770,48794506,18567 NE 57th St # F18567,Redmond,WA,98052
771,48952420,7250 Old Redmond Rd APT F121,Redmond,WA,98052
772,49012256,16126 NE 44th Ct,Redmond,WA,98052
773,48658834,3325 279th Ave NE,Redmond,WA,98053
774,48814022,14413 120th Pl NE,Kirkland,WA,98034
775,48881036,14255 92ND Ave NE,KIRKLAND,WA,98034
776,48900418,14510 124th Ave NE # 10C,Kirkland,WA,98034
777,48696281,7624 116th Ave NE,Kirkland,WA,98033
778,49104935,13320 NE 137th Pl,Kirkland,WA,98034
779,48664007,12714 NE 129th Ct APT E102,Kirkland,WA,98034
780,2128261475,8149 NE 117th Pl,Kirkland,WA,98034
781,49095018,14262 93rd Ct NE,Kirkland,WA,98034
782,68478127,11229 NE 128th St APT H302,Kirkland,WA,98034
783,48902280,143 8th Ave,Kirkland,WA,98033
784,48808451,12914 NE 72nd St,Kirkland,WA,98033
785,119907130,10702 NE 65th Ln,Kirkland,WA,98033
786,48999885,12326 NE 102nd Ln,Kirkland,WA,98033
787,48716335,218 13th Ave,Kirkland,WA,98033
788,72496967,10104 NE 60th St APT 116,Kirkland,WA,98033
789,48843758,13145 113th Pl NE # 14,Kirkland,WA,98034
790,48754397,11412 113th Pl NE,Kirkland,WA,98033
791,48758111,11510 NE 128th St APT 4,Kirkland,WA,98034
792,48827227,13203 129th Pl NE,Kirkland,WA,98034
793,2124822362,12603 100th Ln NE APT K252,Kirkland,WA,98034
794,88878203,9521 Slater Ave NE,Kirkland,WA,98033
795,61767848,10023 NE 138th Pl # C-5C5,Kirkland,WA,98034
796,48850636,14227 77th Ave NE,Kirkland,WA,98034
797,72497191,631 Market St UNIT 302,Kirkland,WA,98033
798,48734871,10010 NE 122nd St APT A,Kirkland,WA,98034
800,48702293,12108 NE 151st St,Kirkland,WA,98034
801,49136611,14321 109th Ave NE,Kirkland,WA,98034
802,80260949,5404 Lake Washington Blvd NE UNIT K,Kirkland,WA,98033
803,119637562,13206 106th Pl NE,Kirkland,WA,98034
804,63335469,9920 NE 119th St,Kirkland,WA,98034
805,48853680,11055 116TH Ave NE,KIRKLAND,WA,98033
806,58385841,12310 NE 92nd St APT H208,Kirkland,WA,98033
807,66667806,13211 NE 137th Ct,Kirkland,WA,98034
808,48891367,12411 109th Ct NE,Kirkland,WA,98034
809,48902511,11421 NE 91st St,Kirkland,WA,98033
810,2101657442,375 Kirkland Ave ##325,Kirkland,WA,98033
811,49070615,10411 NE 115th Pl # L-44,Kirkland,WA,98033
812,61719118,6906 120th Ave NE,Kirkland,WA,98033
813,48891677,10638 NE 125th Pl,Kirkland,WA,98034
814,2101657561,375 Kirkland Ave ##125,Kirkland,WA,98033
