,zpid,street,city,state,zipcode
0,19537840,1058 Lois Ave,Sunnyvale,CA,94087
1,19521633,994 La Mesa Ter UNIT G,Sunnyvale,CA,94086
2,19617959,1005 Bryant Way APT L,Sunnyvale,CA,94087
3,19537196,1175 Andover Dr,Sunnyvale,CA,94087
4,19494162,1148 La Rochelle Ter UNIT B,Sunnyvale,CA,94089
5,24862982,1046 Central Ave,Alameda,CA,94501
6,24861179,1724 Eagle Ave,Alameda,CA,94501
7,72700378,2378 Coral Sea St,Alameda,CA,94501
8,24867075,1088 Melrose Ave,Alameda,CA,94502
9,64964577,2118 Chipman St,Alameda,CA,94501
10,82850279,2361 Tuttle Ln,Alameda,CA,94501
11,24859169,2518 Encinal Ave,Alameda,CA,94501
12,24863670,758 Haight Ave,Alameda,CA,94501
13,24871312,1311 Webster St APT E301,Alameda,CA,94501
14,24862111,1524 Lincoln Ave,Alameda,CA,94501
15,24855868,3314 Washington Ct,Alameda,CA,94501
16,24872185,12 Courageous Ct # B70,Alameda,CA,94501
17,24867126,321 Maitland Dr,Alameda,CA,94502
18,24860415,2034 San Jose Ave,Alameda,CA,94501
19,24858403,2718 Washington St,Alameda,CA,94501
20,24872911,323 Sweet Rd,Alameda,CA,94502
21,24857164,3236 Garfield Ave,Alameda,CA,94501
22,2101267475,2133 Santa Clara Avenue #104,Alameda,CA,94501
23,2139362491,1305 Crown Dr,Alameda,CA,94501
24,24863395,1857 Wood St,Alameda,CA,94501
25,24869723,501 Tideway Dr,Alameda,CA,94501
26,24857053,1541 Fountain St,Alameda,CA,94501
27,24865204,146 Asby Bay,Alameda,CA,94502
28,24866719,3334 Fir Ave,Alameda,CA,94502
29,2101204028,820 Island Drive,Alameda,CA,94502
30,24869733,430 Cola Ballena APT B,Alameda,CA,94501
31,24860740,2061 Eagle Ave,Alameda,CA,94501
32,24865752,74 Sable Pt,Alameda,CA,94502
33,24872874,37 Hays Ct,Alameda,CA,94502
34,24869470,1235 Hawthorne St,Alameda,CA,94501
35,24869478,633 Waterfall Isle,Alameda,CA,94501
36,24867709,2101 Shoreline Dr APT 246,Alameda,CA,94501
37,15624870,1551 Southgate Ave APT 314,Daly City,CA,94015
38,15622410,357 Half Moon Ln APT 1,Daly City,CA,94015
39,15464001,296 Rio Verde St,Daly City,CA,94014
40,15465175,1095 S Mayfair Ave,Daly City,CA,94015
41,15581981,1149 Howard Ave,Menlo Park,CA,94025
42,15581989,1130 Windermere Ave,Menlo Park,CA,94025
43,15598329,2139 Cedar Ave,Menlo Park,CA,94025
44,15569290,1363 Henderson Ave,Menlo Park,CA,94025
45,15599741,1000 Continental Dr,Menlo Park,CA,94025
46,15581821,1049 Almanor Ave,Menlo Park,CA,94025
47,15569444,1342 Henderson Ave,Menlo Park,CA,94025
48,15569645,1341 Carlton Ave,Menlo Park,CA,94025
49,82951257,500 Newbridge St,Menlo Park,CA,94025
50,15582073,1215 Hollyburne Ave,Menlo Park,CA,94025
51,15574897,831 Canyon Rd,Redwood City,CA,94062
52,15575783,1142 Chesterton Ave,Redwood City,CA,94061
53,15637304,877 Boardwalk Pl,Redwood City,CA,94065
54,15576784,354 Encina Ave,Redwood City,CA,94061
55,15573017,178 Opal Ave,Redwood City,CA,94062
56,15571678,823 Shepard Way,Redwood City,CA,94062
57,15574817,2442 Harding Ave,Redwood City,CA,94062
58,15637712,822 Lakeshore Dr,Redwood City,CA,94065
59,15567603,3125 Page St,Redwood City,CA,94063
60,15635738,1140 Whipple Ave APT 25,Redwood City,CA,94062
61,15591405,1662 Anamor St,Redwood City,CA,94061
62,15590553,20 Woodleaf Ave,Redwood City,CA,94061
63,15591863,1811 Maddux Dr,Redwood City,CA,94061
64,15618893,507 Sealight Ln,Redwood City,CA,94065
65,15567628,3241 Hoover St,Redwood City,CA,94063
66,15634311,4000 Farm Hill Blvd APT 101,Redwood City,CA,94061
67,15567103,616 Douglas Ave,Redwood City,CA,94063
68,15574828,823 Breeze Pl,Redwood City,CA,94062
69,15491946,2940 Saint Cloud Dr,San Bruno,CA,94066
70,15624622,8223 Shelter Creek Ln,San Bruno,CA,94066
71,15623331,145 Piccadilly Pl APT C,San Bruno,CA,94066
72,19595020,2972 Orthello Way,Santa Clara,CA,95051
73,79847465,2600 Cortez Dr UNIT 6102,Santa Clara,CA,95051
74,19555637,2941 Mark Ave,Santa Clara,CA,95051
75,19490562,4131 Davis St,Santa Clara,CA,95054
76,19555196,2219 Monterey Ave,Santa Clara,CA,95051
77,19554228,3431 Bella Vista Ave,Santa Clara,CA,95051
78,19552032,2191 Bowers Ave,Santa Clara,CA,95051
79,19595076,3264 Humbolt Ave,Santa Clara,CA,95051
80,19601016,151 Buckingham Dr UNIT 285,Santa Clara,CA,95051
81,19556913,1721 Washington St,Santa Clara,CA,95050
82,19599901,727 Kiely Blvd,Santa Clara,CA,95051
83,19542044,599 E Arbor Ave,Sunnyvale,CA,94085
84,19544462,710 Santa Rosa St,Sunnyvale,CA,94085
85,19616110,1054 Castleton Way,Sunnyvale,CA,94087
86,19548774,663 Smoke Tree Way,Sunnyvale,CA,94086
87,19542222,681 Georgia Ave,Sunnyvale,CA,94085
88,19616310,1346 Eleanor Way,Sunnyvale,CA,94087
89,24872872,50 Hays Ct,Alameda,CA,94502
90,24858819,1615 Pearl St,Alameda,CA,94501
91,24867958,2137 Otis Dr,Alameda,CA,94501
92,24863147,1209 9th St,Alameda,CA,94501
93,2101655290,960 Shorepoint Court #204,Alameda,CA,94501
94,24871222,1321 Webster St APT D110,Alameda,CA,94501
95,2105095668,2125 Bryant St APT 318,San Francisco,CA,94110
96,64972426,843 S Van Ness Ave APT 4,San Francisco,CA,94110
97,15143978,688 S Van Ness Ave,San Francisco,CA,94110
98,15144719,161-163 San Carlos St,SAN FRANCISCO,CA,94110
99,2101588805,82 Alvarado St,San Francisco,CA,94110
100,15180438,3262 25th St,San Francisco,CA,94110
101,64969383,2412 Harrison St APT 108,San Francisco,CA,94110
102,15151279,1061 Alabama St,San Francisco,CA,94110
103,54854588,150 Guerrero St,San Francisco,CA,94103
104,15180297,390-392 Fair Oaks St,SAN FRANCISCO,CA,94110
105,15146691,72 Alvarado St # 72A,San Francisco,CA,94110
106,2124543463,3463 17th St # A,San Francisco,CA,94110
107,111711190,2101 Bryant St APT 306,San Francisco,CA,94110
108,15152646,2851 25th St,San Francisco,CA,94110
109,2101168133,80 Alvarado Street,San Francisco,CA,94110
110,2101737500,76 Alvarado Street,San Francisco,CA,94110
111,15151302,1041 Florida St,San Francisco,CA,94110
112,15181858,3790 Cesar Chavez,San Francisco,CA,94110
113,59779743,3310 19th St APT 301,San Francisco,CA,94110
114,2101690926,180 Dolores St APT 7,San Francisco,CA,94103
115,15152416,1219 York St,San Francisco,CA,94110
116,15143880,66 Rondel Pl,San Francisco,CA,94103
117,15149401,1623 18th St,San Francisco,CA,94107
118,15150649,615 Wisconsin St,San Francisco,CA,94107
119,80748857,999 16th St APT 17,San Francisco,CA,94107
120,2101979807,301 Rhode Island Street #B-20,San Francisco,CA,94103
121,59740781,1129 Carolina St # B,San Francisco,CA,94107
122,15152105,2225 23rd St APT 404,San Francisco,CA,94107
123,15148916,131-133 Arkansas St,SAN FRANCISCO,CA,94107
124,89239205,451 Kansas St UNIT 419,San Francisco,CA,94107
125,2119578259,1319 19th St,San Francisco,CA,94107
126,2101331127,1408 31st Ave APT 303,San Francisco,CA,94122
127,2105094570,1524-1526 48th Ave,San Francisco,CA,94122
128,15108557,1619 38th Ave,San Francisco,CA,94122
129,15108348,1627 42nd Ave,San Francisco,CA,94122
130,15104680,3300 Kirkham St,San Francisco,CA,94122
131,15105368,1482 23rd Ave,San Francisco,CA,94122
132,15104120,4737 Irving St,San Francisco,CA,94122
133,15104006,1314 45th Ave,San Francisco,CA,94122
134,15107831,1558 45th Ave,San Francisco,CA,94122
135,15105047,1415-1417 28TH Ave,SAN FRANCISCO,CA,94122
136,15108483,1642 41st Ave,San Francisco,CA,94122
137,15104061,1347 46th Ave,San Francisco,CA,94122
138,15120947,2339 37th Ave,San Francisco,CA,94116
139,15108502,1619 39th Ave,San Francisco,CA,94122
140,15114023,1979 42nd Ave,San Francisco,CA,94116
141,15121204,2300 43rd Ave,San Francisco,CA,94116
142,15112791,2300 Ortega St,San Francisco,CA,94122
143,15109202,1666 25th Ave,San Francisco,CA,94122
144,15104270,1471 45th Ave,San Francisco,CA,94122
145,15101285,3630-3632 Irving St,SAN FRANCISCO,CA,94122
146,15116909,2150 46th Ave,San Francisco,CA,94116
147,15104815,2915 Judah St,San Francisco,CA,94122
148,15120937,2433 Santiago St,San Francisco,CA,94116
149,15107370,1579 33rd Ave,San Francisco,CA,94122
150,15164692,731 Ellsworth St,San Francisco,CA,94110
151,15164451,80 Crescent Ave,San Francisco,CA,94110
152,15162019,3663 Folsom St,San Francisco,CA,94110
153,15164105,4136 Folsom St,San Francisco,CA,94110
154,15163224,431 Gates St,San Francisco,CA,94110
155,15163959,456 Nevada St,San Francisco,CA,94110
156,15162852,365 Banks St,San Francisco,CA,94110
157,15161199,24 Fair Ave,San Francisco,CA,94110
158,15184329,114-116 Saint Marys Ave,SAN FRANCISCO,CA,94112
159,15163338,473 Andover St,San Francisco,CA,94110
160,68041908,400 Presidio St,San Pablo,CA,94806
161,15072674,2131 Vallejo St APT 3,San Francisco,CA,94123
162,2101302590,2063 Broadway Street,San Francisco,CA,94115
163,15073535,1925 Pacific Ave APT 3,San Francisco,CA,94109
164,15072555,2447 Vallejo St APT 2,San Francisco,CA,94123
165,63196659,2117 Broadway St,San Francisco,CA,94115
166,15074767,2299 Sacramento St APT 21,San Francisco,CA,94115
167,15073236,2200 Pacific Ave APT 6D,San Francisco,CA,94115
168,2101590881,2263 - 2269 Sacramento Street,San Francisco,CA,94115
169,64971640,1221 Harrison St APT 28,San Francisco,CA,94103
170,15148778,50 Lucerne St APT 7,San Francisco,CA,94103
171,2101168558,506 Natoma St,San Francisco,CA,94103
172,64969833,140 S Van Ness Ave UNIT 721,San Francisco,CA,94103
173,2101666476,481 Clementina Street #A,San Francisco,CA,94103
174,69820048,773 Tehama St UNIT 2,San Francisco,CA,94103
175,2101519135,325 Berry St. #106,San Francisco,CA,94158
176,89240389,888 7th St # L19,San Francisco,CA,94107
177,83152810,1160 Mission St UNIT 511,San Francisco,CA,94103
178,80739922,260 King St UNIT 273,San Francisco,CA,94107
179,80731555,321 Langton St UNIT 12,San Francisco,CA,94103
180,69819538,250 King St UNIT 746,San Francisco,CA,94107
181,80748498,175 Bluxome St UNIT 109,San Francisco,CA,94107
182,80730936,601 4th St UNIT 121,San Francisco,CA,94107
183,15147476,469 Clementina St APT 7,San Francisco,CA,94103
184,15132172,990 Corbett Ave,San Francisco,CA,94131
185,15132175,998 Corbett Ave,San Francisco,CA,94131
186,64969129,587 Corbett Ave,San Francisco,CA,94114
190,24870600,146 Nottingham Dr,Alameda,CA,94502
213,24871750,176 Purcell Dr,Alameda,CA,94502
233,15607249,69 Lycett Cir,Daly City,CA,94015
234,54569509,677 Bellevue Ave,Daly City,CA,94014
235,15464521,28 Nancy Ln,Daly City,CA,94014
236,15468069,224 3rd Ave,Daly City,CA,94014
237,15463205,480 Hanover St,Daly City,CA,94014
238,15470674,425 Westmoor Ave,Daly City,CA,94015
239,15462972,232 Acton St,Daly City,CA,94014
240,15460156,267 Miriam St,Daly City,CA,94014
241,15474570,60 Saint Michaels Ct,Daly City,CA,94015
242,15466408,31 Werner Ave,Daly City,CA,94014
243,15607260,7 Lycett Ct,Daly City,CA,94015
244,15620475,349 Philip Dr APT 204,Daly City,CA,94015
245,15604713,238 Alta Vista Way,Daly City,CA,94014
246,15463879,336 Rio Verde St,Daly City,CA,94014
247,15622094,374 Imperial Way APT 8,Daly City,CA,94015
248,15468902,300 Valley St,Daly City,CA,94014
249,15474122,95 Longview Dr,Daly City,CA,94015
250,15464610,33 Skyline Dr,Daly City,CA,94015
251,15460684,137 W Moltke St,Daly City,CA,94014
252,15463906,324 Accacia St,Daly City,CA,94014
253,15604594,86 Alta Vista Way,Daly City,CA,94014
254,15625525,1007 Arlington Ln,Daly City,CA,94014
255,15470687,206 Avalon Dr,Daly City,CA,94015
256,55007239,288 Bay Ridge Dr,Daly City,CA,94014
257,15472426,42 Southdale Ave,Daly City,CA,94015
258,15462333,64 Peoria St,Daly City,CA,94014
259,15467393,726 Beechwood Dr,Daly City,CA,94015
260,15462243,263 Alexander Ave,Daly City,CA,94014
261,15474629,44 Saint James Ct,Daly City,CA,94015
262,15459553,375 Rhine St,Daly City,CA,94014
263,15609635,376 Barbara Ln,Daly City,CA,94015
264,15468569,524 Lausanne Ave,Daly City,CA,94014
265,15466212,411 88th St,Daly City,CA,94015
266,15471798,54 Oceanside Dr,Daly City,CA,94015
267,15474013,96 Rockford Ave,Daly City,CA,94015
268,15456829,269 Wilshire Ave,Daly City,CA,94015
269,15621663,377 Mandarin Dr APT 314,Daly City,CA,94015
270,15460740,438 Miriam St,Daly City,CA,94014
271,15625223,250 Greenview Dr,Daly City,CA,94014
272,15467171,638 Stoneyford Dr,Daly City,CA,94015
273,15471230,210 San Fernando Way,Daly City,CA,94015
274,15461688,3223 San Jose Ave,Daly City,CA,94014
275,15464242,1057 Schwerin St,Daly City,CA,94014
276,15457490,389 Glenwood Ave,Daly City,CA,94015
277,58660634,933 Farrier Pl,Daly City,CA,94014
278,15474099,12 Montebello Dr,Daly City,CA,94015
279,89238691,201 Ballard Ln,Menlo Park,CA,94025
280,52394222,1787 Santa Cruz Ave,Menlo Park,CA,94025
281,15587255,182 Oak Ct,Menlo Park,CA,94025
282,15595358,1715 Bay Laurel Dr,Menlo Park,CA,94025
283,15594909,900 Cloud Ave,Menlo Park,CA,94025
284,15582075,1207 Hollyburne Ave,Menlo Park,CA,94025
285,15594940,1827 Edgewood Ln,Menlo Park,CA,94025
286,15582217,1232 Sevier Ave,Menlo Park,CA,94025
287,15599487,5 Shasta Ln,Menlo Park,CA,94025
289,2101391386,804 Woodland Ave.,Menlo Park,CA,94025
290,15594465,1341 Hillview Dr,Menlo Park,CA,94025
291,15595106,1015 Atkinson Ln,Menlo Park,CA,94025
292,15600060,2443 Sharon Oaks Dr,Menlo Park,CA,94025
293,15599400,1030 Monte Rosa Dr,Menlo Park,CA,94025
294,15595727,745 Arbor Rd,Menlo Park,CA,94025
295,15578993,457 7th Ave,Menlo Park,CA,94025
296,15598624,2024 Gordon Ave,Menlo Park,CA,94025
297,15581428,1539 Laurel Pl,Menlo Park,CA,94025
298,15596509,701 College Ave,Menlo Park,CA,94025
321,2101245331,559 Douglass Street,San Francisco,CA,94114
323,2101232576,2200 Market Street #401,San Francisco,CA,94114
324,2128800092,38A Sharon St,San Francisco,CA,94114
326,89236923,2405 Folsom St APT 4,San Francisco,CA,94110
329,2101292204,23 Homestead Sthomestead St,San Francisco,CA,94114
331,15146566,985 Sanchez St,San Francisco,CA,94114
332,82785850,1159 Church St,San Francisco,CA,94114
333,69819101,3883 18th St,San Francisco,CA,94114
334,15143758,347 Noe St,San Francisco,CA,94114
335,2129176472,4182 20th St,San Francisco,CA,94114
336,15146109,816 Dolores St,San Francisco,CA,94110
338,15130669,414 Eureka St,San Francisco,CA,94114
339,15129315,602-604 Castro St,SAN FRANCISCO,CA,94114
340,15181352,3861 25th St,San Francisco,CA,94114
342,15142897,164-166 Henry St,SAN FRANCISCO,CA,94114
343,64972386,464 Collingwood St,San Francisco,CA,94114
344,15143732,66-68 Prosper St,SAN FRANCISCO,CA,94114
345,2101978021,1245 Broadway APT 3,San Francisco,CA,94109
346,2101160276,1126-1130 Pacific Avenue,San Francisco,CA,94133
347,2101138452,151 Bernard Street,San Francisco,CA,94109
348,2104332655,1508 Jackson St,San Francisco,CA,94109
349,2101288380,42 Wayne Place,San Francisco,CA,94133
350,15073742,1554-1558 Jackson St,SAN FRANCISCO,CA,94109
351,24776990,3518 Suter St,Oakland,CA,94619
352,24782619,3115 Monticello Ave,Oakland,CA,94619
353,24793087,2622 73rd Ave,Oakland,CA,94605
354,24740776,1692 15th St,Oakland,CA,94607
355,24792619,2546 79th Ave,Oakland,CA,94605
356,24794667,8057 Greenly Dr,Oakland,CA,94605
357,24794665,8041 Greenly Dr,Oakland,CA,94605
358,2105494395,1072 Aileen St,Emeryville,CA,94608
359,2119873064,565 Bellevue Ave APT 704,Oakland,CA,94610
360,24757287,6301 Herzog St,Oakland,CA,94608
361,24765920,1221 31st Ave,Oakland,CA,94601
362,24768427,3038 Curran Ave,Oakland,CA,94602
363,24766263,2437 Foothill Blvd,Oakland,CA,94601
364,24767393,2201 E 33rd St,Oakland,CA,94602
365,24753859,5727 Vicente St,Oakland,CA,94609
366,24764070,1673 Macarthur Blvd,Oakland,CA,94602
367,82842413,2930 E 16th St,Oakland,CA,94601
368,24806927,10937 Julius St # B,Oakland,CA,94605
369,24790740,2387 73rd Ave,Oakland,CA,94605
370,2101287607,1488 14th St E #E,oakland,CA,94607
371,24780858,1523 52nd Ave,Oakland,CA,94601
372,24755639,540 62nd St,Oakland,CA,94609
373,64965763,1 Lakeside Dr APT 1206,Oakland,CA,94612
374,24808668,10715 Fallbrook Way,Oakland,CA,94605
375,2101266118,1007 41st Street #221,Emeryville,CA,94608
377,24792379,1621 81st Ave,Oakland,CA,94621
378,24802749,9728 Maddux Dr,Oakland,CA,94603
379,24742447,320 Park View Ter APT 308,Oakland,CA,94610
380,24808281,3038 Middleton St,Oakland,CA,94605
381,24798945,2457 83rd Ave,Oakland,CA,94605
382,24741050,1425 Lakeside Dr APT 101,Oakland,CA,94612
383,24774916,4559 Elinora Ave,Oakland,CA,94619
384,24785178,85 Samaria Ln,Oakland,CA,94619
385,24758273,2253 E 15th St,Oakland,CA,94606
386,24798494,1951 Auseon Ave,Oakland,CA,94621
387,24755591,544 59th St,Oakland,CA,94609
388,79541998,1511 Jefferson St UNIT 113,Oakland,CA,94612
389,24778896,2253 38th Ave,Oakland,CA,94601
390,61173768,1603 Chandler St # 124,Oakland,CA,94603
391,24788515,2336 62nd Ave,Oakland,CA,94605
392,24791114,1607 73rd Ave,Oakland,CA,94621
393,2101210323,4037 E 16th St,Oakland,CA,94601
394,24786576,6156 Oakdale Ave,Oakland,CA,94605
395,24792445,8127 Hillside St,Oakland,CA,94605
396,24762069,2144 E 27th St,Oakland,CA,94606
397,24743056,399 Jayne Ave,Oakland,CA,94610
398,2101451820,1201 Pine St. #461,Oakland,CA,94607
399,24790737,7215 Halliday Ave,Oakland,CA,94605
400,24746126,3908 Lakeshore Ave,Oakland,CA,94610
401,24767339,2745 25th Ave,Oakland,CA,94601
402,24819504,220 Caldecott Ln UNIT 314,Oakland,CA,94618
403,54789128,211 Accolade Dr,San Leandro,CA,94577
404,24792745,2631 Parker Ave,Oakland,CA,94605
405,2135821815,6714 International Blvd,Oakland,CA,94621
406,24754724,5565 Marshall St,Oakland,CA,94608
407,24781540,5444 Princeton St,Oakland,CA,94601
408,24746263,4233 Balfour Ave,Oakland,CA,94610
409,24797748,1737 84th Ave,Oakland,CA,94621
410,24768498,3066 Berlin Way,Oakland,CA,94602
411,24774607,4757 Lincoln Ave,Oakland,CA,94602
412,24793481,7420 Ney Ave,Oakland,CA,94605
414,24819328,6026 Skyline Blvd,Oakland,CA,94611
415,24766917,2635 E 25th St,Oakland,CA,94601
416,24748239,681 37th St,Oakland,CA,94609
417,24767434,2927 Sheffield Ave,Oakland,CA,94602
418,79541724,1511 Jefferson St UNIT 215,Oakland,CA,94612
419,2125197351,678 37th St APT 10,Oakland,CA,94609
420,24809080,4735 Stacy St,Oakland,CA,94605
421,24819743,320 Caldecott Ln UNIT 123,Oakland,CA,94618
422,24791227,1640 Church St,Oakland,CA,94621
423,24752696,5215 Locksley Ave,Oakland,CA,94618
424,24814368,6313 Melville Dr,Oakland,CA,94611
425,24805348,9729 Hillgrade Ct,Oakland,CA,94603
426,24782658,4546 Virginia Ave,Oakland,CA,94619
428,24797954,2041 84th Ave,Oakland,CA,94621
429,24784882,4635 Stauffer Pl,Oakland,CA,94619
430,24792071,1601 79th Ave,Oakland,CA,94621
431,89031531,330 13th St # 3A,Oakland,CA,94612
432,24739182,343 Chester St,Oakland,CA,94607
433,24753380,5330 Miles Ave,Oakland,CA,94618
434,2101530591,5437 Trask Street,Oakland,CA,94601
435,24745780,505 Fairbanks Ave,Oakland,CA,94610
436,24782877,2912 Maxwell Ave,Oakland,CA,94619
437,24760731,344 Newton Ave,Oakland,CA,94606
447,19469895,850 E Greenwich Pl,Palo Alto,CA,94303
448,19524217,4250 El Camino Real APT A310,Palo Alto,CA,94306
449,19497656,271 Stanford Ave,Palo Alto,CA,94306
450,19497847,344 Grant Ave,Palo Alto,CA,94306
451,19498692,3851 Nathan Way,Palo Alto,CA,94303
452,19505642,3650 La Calle Ct,Palo Alto,CA,94306
453,19529059,2991 Alexis Dr,Palo Alto,CA,94304
454,19466870,1420 University Ave,Palo Alto,CA,94301
455,19505064,602 Chimalus Dr,Palo Alto,CA,94306
456,19495108,280 Waverley St,Palo Alto,CA,94301
457,19495867,459 Homer Ave APT 8,Palo Alto,CA,94301
458,19467076,1509 Edgewood Dr,Palo Alto,CA,94303
459,19526681,890 Robb Rd,Palo Alto,CA,94306
460,19504712,2150 Oberlin St,Palo Alto,CA,94306
461,2103965148,1061 Alma Street,Palo Alto,CA,94301
462,19495824,631 Forest Ave,Palo Alto,CA,94301
463,19506368,628 Georgia Ave,Palo Alto,CA,94306
464,94697896,3711 Heron Way,Palo Alto,CA,94303
465,19467957,959 Channing Ave,Palo Alto,CA,94301
466,19466960,1531 University Ave,Palo Alto,CA,94301
470,2101155536,3 Buccaneer Lane,Redwood Shores,CA,94065
471,15566599,1336 Hancock St,Redwood City,CA,94063
472,64626836,105 Atherwood Ave,Redwood City,CA,94061
473,15618734,103 Moonbeam Ln,Redwood City,CA,94065
474,15618905,406 Promenade Ln,Redwood City,CA,94065
475,15565683,506 Oak Ave,Redwood City,CA,94061
476,15617426,585 Anchor Cir,Redwood City,CA,94065
477,15573659,2428 Jefferson Ave,Redwood City,CA,94062
478,15577575,127 Atherwood Ave,Redwood City,CA,94061
479,2101373124,3980 Lonesome Pine Road,Redwood City,CA,94061
480,2102643075,784 Arguello St # 784,Redwood City,CA,94063
481,15563317,144 E St,Redwood City,CA,94063
482,15591960,1969 Kentucky St,Redwood City,CA,94061
483,15562971,163 Somerset St,Redwood City,CA,94062
484,15572632,996 Edgecliff Way,Redwood City,CA,94061
485,15576652,105 Nueva Ave,Redwood City,CA,94061
486,15637193,417 Cork Harbour Cir APT H,Redwood City,CA,94065
487,15571826,1040 Lakeview Way,Emerald Hills,CA,94062
488,15591948,2079 Idaho Ct,Redwood City,CA,94061
489,58660799,33 Westgate St,Redwood City,CA,94062
490,15578343,830 Chatsworth Ln,Redwood City,CA,94061
491,15564379,1515 Brewster Ave,Redwood City,CA,94062
492,15638899,500 Baltic Cir UNIT 536,Redwood City,CA,94065
493,15565921,420 Cedar St,Redwood City,CA,94063
494,15572271,3775 Red Oak Way,Redwood City,CA,94061
495,2101842737,010 Fernside,Redwood City,CA,94061
496,2103336787,5 Woodridge Court,REDWOOD CITY,CA,94061
497,15567739,1115 Haven Ave,Redwood City,CA,94063
498,2101541566,1193 Mongomery,San Bruno,CA,94066
499,15499042,229 San Anselmo Ave N,San Bruno,CA,94066
500,15620580,1 Appian Way APT 703-8,South San Francisco,CA,94080
501,15496823,877 6th Ave,San Bruno,CA,94066
502,15496902,724 5th Ave,San Bruno,CA,94066
503,82951303,208 Marbella Ln,San Bruno,CA,94066
504,15492526,170 Tehama Ct,San Bruno,CA,94066
505,15496828,841 6th Ave,San Bruno,CA,94066
506,15623333,145 Piccadilly Pl APT E,San Bruno,CA,94066
507,15490825,2771 Fleetwood Dr,San Bruno,CA,94066
508,15622522,1126 Cherry Ave APT 31,San Bruno,CA,94066
509,15623920,4121 Shelter Creek Ln,San Bruno,CA,94066
510,15497015,540 7th Ave,San Bruno,CA,94066
511,15490642,2921 Fleetwood Dr,San Bruno,CA,94066
512,15497520,435 Hawthorne Ave,San Bruno,CA,94066
513,15621170,1031 Cherry Ave APT 3,San Bruno,CA,94066
514,15494810,2390 Whitman Way,San Bruno,CA,94066
515,15493004,150 Colusa Ct,San Bruno,CA,94066
516,15496046,860 Reid Ave,San Bruno,CA,94066
517,15497196,734 3rd Ave,San Bruno,CA,94066
518,15492604,318 Goodwin Dr,San Bruno,CA,94066
519,2101740572,449 E. Angus Avenue,San Bruno,CA,94066
520,15488855,20 Atlantic Ave,San Bruno,CA,94066
521,15621221,1031 Cherry Ave APT 55,San Bruno,CA,94066
522,15496590,729 Easton Ave,San Bruno,CA,94066
523,15491815,3800 Fleetwood Dr,San Bruno,CA,94066
524,15496454,835 Masson Ave,San Bruno,CA,94066
525,15492858,280 Amador Ave,San Bruno,CA,94066
526,15622890,241 Boardwalk Ave APT A,San Bruno,CA,94066
527,15497698,560 Cherry Ave,San Bruno,CA,94066
528,15495579,760 Cedar Ave,San Bruno,CA,94066
529,19552894,2522 Borax Dr,Santa Clara,CA,95051
530,19552897,2508 Borax Dr,Santa Clara,CA,95051
531,19597998,770 Cornell Dr,Santa Clara,CA,95051
532,69302234,1461 Main St APT 1,Santa Clara,CA,95050
533,19581161,821 Hilmar St,Santa Clara,CA,95050
534,69300119,3901 Lick Mill Blvd APT 150,Santa Clara,CA,95054
535,19553690,1791 Briarwood Dr,Santa Clara,CA,95051
536,19613591,1315 Dunnock Way,Sunnyvale,CA,94087
537,19596832,936 Kiely Blvd UNIT B,Santa Clara,CA,95051
538,19597449,1400 Bowe Ave APT 1606,Santa Clara,CA,95051
539,19556762,2045 Jackson St,Santa Clara,CA,95050
540,19487559,4705 Armour Dr,Santa Clara,CA,95054
541,19600163,618 Enos Ct,Santa Clara,CA,95051
542,19487710,1822 Eisenhower Dr,Santa Clara,CA,95054
543,19552871,2546 Glade Dr,Santa Clara,CA,95051
544,19553136,2550 Castello Way,Santa Clara,CA,95051
545,19622660,1425 S Mary Ave,Sunnyvale,CA,94087
546,19491889,2298 Alcalde St,Santa Clara,CA,95054
547,19600425,2768 Taft Ave,Santa Clara,CA,95051
548,69300233,3901 Lick Mill Blvd APT 355,Santa Clara,CA,95054
549,19490465,4390 Bassett St,Santa Clara,CA,95054
550,19554928,2387 Fordham Dr,Santa Clara,CA,95051
551,19581640,70 Alviso St,Santa Clara,CA,95050
552,19543336,469 Roosevelt Ave,Sunnyvale,CA,94085
553,19580003,1770 Homestead Rd,Santa Clara,CA,95050
554,19606819,363 Cypress Ave,Santa Clara,CA,95050
555,19553234,2553 Gallup Dr,Santa Clara,CA,95051
556,19553235,2563 Gallup Dr,Santa Clara,CA,95051
557,19596594,1033 Alta Mira Dr APT A,Santa Clara,CA,95051
558,19598040,3043 Alexander Ave,Santa Clara,CA,95051
559,19579325,1450 Isabella St,Santa Clara,CA,95050
560,59682636,4250 Rivermark Pkwy,Santa Clara,CA,95054
561,19492338,1091 Essex Ave,Sunnyvale,CA,94089
562,19618618,370 La Herran Dr,Santa Clara,CA,95051
563,54769972,2162 Esperanca Ave,Santa Clara,CA,95054
564,19552675,2529 Moraine Dr,Santa Clara,CA,95051
565,19601153,121 Buckingham Dr UNIT 25,Santa Clara,CA,95051
566,19596456,1146 Pomeroy Ave,Santa Clara,CA,95051
567,19597184,980 Kiely Blvd UNIT 320,Santa Clara,CA,95051
568,19487992,761 Clyde Ave,Santa Clara,CA,95054
569,94702041,1977 Hillebrant Pl,Santa Clara,CA,95050
570,19546755,859 Lavender Dr,Sunnyvale,CA,94086
571,19579310,1832 Clifford St,Santa Clara,CA,95050
572,19579523,1383 Alviso St,Santa Clara,CA,95050
573,19493066,835 Lakewood Dr,Sunnyvale,CA,94089
574,19554174,1841 Nobili Ave,Santa Clara,CA,95051
575,2101217232,1777 Lafayette Street #105,Santa Clara,CA,95050
576,19555289,2167 Santa Cruz Ave,Santa Clara,CA,95051
591,19537655,808 Ramona Ave,Sunnyvale,CA,94087
592,19491184,1147 Palamos Ave,Sunnyvale,CA,94089
593,19543128,315 Orchard Ave,Sunnyvale,CA,94085
594,19550177,248 Red Oak Dr E APT E,Sunnyvale,CA,94086
595,19492366,1056 Essex Ave,Sunnyvale,CA,94089
596,89475279,489 Torrey Pine Ter,Sunnyvale,CA,94086
597,2101629421,1111 Morse Ave. #204,Sunnyvale,CA,94089
598,19616261,1339 Poplar Ave,Sunnyvale,CA,94087
599,19544485,710 Santa Rita St,Sunnyvale,CA,94085
600,19543194,395 N Murphy Ave,Sunnyvale,CA,94085
601,2139402181,1095 Munich Ter,Sunnyvale,CA,94089
602,19622185,1035 W Homestead Rd,Sunnyvale,CA,94087
603,19548085,909 Reed Ave,Sunnyvale,CA,94086
604,19546292,520 S Sunnyvale Ave,Sunnyvale,CA,94086
605,2101330902,150 Karby Terrace #302,Sunnyvale,CA,94089
606,2101330901,1150 Karby Terrace #303, Sunnyvale,CA,94089
607,19490979,935 Blazingwood Dr,Sunnyvale,CA,94089
608,2101193611,1350 Ramon Drive,Sunnyvale,CA,94087
609,19621946,1470 S Bernardo Ave,Sunnyvale,CA,94087
610,19538067,1134 W Knickerbocker Dr,Sunnyvale,CA,94087
611,19616324,1473 Ramon Dr,Sunnyvale,CA,94087
612,19522179,893 Markham Ter,Sunnyvale,CA,94086
613,19522160,382 Redondo Ter,Sunnyvale,CA,94086
614,2122338752,948 E Duane Ave # 100,Sunnyvale,CA,94085
615,19492287,339 Garner Dr,Sunnyvale,CA,94089
616,19520991,877 Coolidge Ave,Sunnyvale,CA,94086
617,2101379588,274-278 W. California Ave.,Sunnyvale,CA,94086
618,19616229,1350 Road Runner Ter APT C,Sunnyvale,CA,94087
619,19542032,554 Cypress Ave,Sunnyvale,CA,94085
620,79842936,1151 Kassel Ter,Sunnyvale,CA,94089
621,19542549,383 Balsam Ave,Sunnyvale,CA,94085
623,24863091,903 San Antonio Ave,Alameda,CA,94501
624,24859684,2318 Eagle Ave,Alameda,CA,94501
625,24857014,3253 Central Ave,Alameda,CA,94501
626,24856910,2854 Santa Clara Ave,Alameda,CA,94501
627,24856680,2919 Encinal Ave,Alameda,CA,94501
628,24868487,325 Kitty Hawk Rd # 316,Alameda,CA,94501
629,53153454,3627 19th St,San Francisco,CA,94110
630,123597388,667 Shotwell St # A,San Francisco,CA,94110
631,2105580158,2169 Folsom St APT S106,San Francisco,CA,94110
632,54854762,3166 26th St # 3,San Francisco,CA,94110
633,2101547670,"3665-3667 24th Street #1, 2, 3, 4",San Francisco,CA,94110
634,15142421,2 Pearl St # 3,San Francisco,CA,94103
635,2101362921,6-8 30th Street,San Francisco,CA,94110
636,15150493,898 Carolina St,San Francisco,CA,94107
637,15150935,553 Pennsylvania Ave # 553,San Francisco,CA,94107
638,15107018,2115 Kirkham St,San Francisco,CA,94122
639,15101375,1255 34th Ave,San Francisco,CA,94122
640,15162560,341 Winfield St,San Francisco,CA,94110
641,15162886,375 Prentiss St,San Francisco,CA,94110
642,15163029,289 Bradford St,San Francisco,CA,94110
643,15164277,207 Crescent Ave,San Francisco,CA,94110
644,15159658,3291 Cesar Chavez,San Francisco,CA,94110
645,15164199,501 Crescent Ave,San Francisco,CA,94110
646,15160543,124-126 Mullen Ave,SAN FRANCISCO,CA,94110
647,15081887,3144 Clay St # 3144,San Francisco,CA,94115
648,15073590,1824 Jackson St APT E,San Francisco,CA,94109
649,96031440,335 Berry St UNIT 402,San Francisco,CA,94158
650,83153479,325 Berry St APT 108,San Francisco,CA,94158
651,96029917,300 Berry St UNIT 1509,San Francisco,CA,94158
652,15130572,3620 Market St APT 5,San Francisco,CA,94131
670,15622320,371 Imperial Way APT 101,Daly City,CA,94015
671,15462505,973 Hanover St,Daly City,CA,94014
672,15463039,336 Frankfort St,Daly City,CA,94014
673,15624765,1551 Southgate Ave APT 157,Daly City,CA,94015
674,15470848,36 Glenbrook Ave,Daly City,CA,94015
675,15473951,88 Westline Dr,Daly City,CA,94015
676,15625666,483 Green Ridge Dr APT 9,Daly City,CA,94014
677,15604786,500 Southhill Blvd UNIT A,Daly City,CA,94014
678,15471764,57 Oceanside Dr,Daly City,CA,94015
679,82949959,98 Alexander Ave,Daly City,CA,94014
680,15470680,413 Westmoor Ave,Daly City,CA,94015
681,15606106,82 Wakefield Ave,Daly City,CA,94015
682,15462400,272 Templeton Ave,Daly City,CA,94014
683,15622254,365 Half Moon Ln APT 1,Daly City,CA,94015
684,15459462,137 Santa Cruz Ave,Daly City,CA,94014
685,15459663,121 Hillcrest Dr,Daly City,CA,94014
686,15463992,948 Schwerin St,Daly City,CA,94014
687,15607915,439 Gellert Blvd,Daly City,CA,94015
688,15472779,409 Saint Francis Blvd,Daly City,CA,94015
689,15471623,63 Menlo Ave,Daly City,CA,94015
690,15470473,47 Ocean Grove Ave,Daly City,CA,94015
691,15620910,335 Innisfree Dr,Daly City,CA,94015
692,15467075,1321 S Mayfair Ave,Daly City,CA,94015
693,68555096,1049 Schwerin St,Daly City,CA,94014
694,15462685,69 Alexander Ave,Daly City,CA,94014
695,15468429,43 Marshall Way,Daly City,CA,94014
696,15457654,28 Garden Grove Dr,Daly City,CA,94015
697,15622365,359 Half Moon Ln APT 115,Daly City,CA,94015
698,15472848,1469 Southgate Ave,Daly City,CA,94015
699,15462762,169 Irvington St,Daly City,CA,94014
700,15463073,307 Frankfort St,Daly City,CA,94014
701,15622118,370 Imperial Way APT 113,Daly City,CA,94015
702,15621852,399 Imperial Way APT 3,Daly City,CA,94015
703,15621850,399 Imperial Way APT 1,Daly City,CA,94015
704,15461057,326 E Moltke St,Daly City,CA,94014
705,15463344,239 Bellevue Ave,Daly City,CA,94014
706,15625718,1029 San Luis Cir UNIT 638,Daly City,CA,94014
707,15622109,370 Imperial Way APT 131,Daly City,CA,94015
708,15620409,302 Philip Dr APT 305,Daly City,CA,94015
709,15620488,303 Philip Dr APT 101,Daly City,CA,94015
717,82785741,221 Eureka St,San Francisco,CA,94114
718,15131692,4251-4253 23RD St,SAN FRANCISCO,CA,94114
720,24799999,3463 Margarita Ave,Oakland,CA,94605
721,24769169,2356 Humboldt Ave,Oakland,CA,94601
722,24799655,7969 Phaeton Dr,Oakland,CA,94605
723,24800547,1226 94th Ave,Oakland,CA,94603
724,24758469,1512 13th Ave,Oakland,CA,94606
725,24787987,5728 Brookdale Ave,Oakland,CA,94605
726,82839246,600 22nd St,Oakland,CA,94612
727,24783288,2468 Maxwell Ave,Oakland,CA,94601
730,19498641,3596 Louis Rd,Palo Alto,CA,94303
731,2101177043,101 Alma ##406,Palo Alto,CA,94301
734,15568380,3612 Hoover St,Redwood City,CA,94063
735,15618190,44 Dockside Cir,Redwood City,CA,94065
736,63153966,3504 Bering Dr,San Bruno,CA,94066
737,15500767,110 San Antonio Ave,San Bruno,CA,94066
738,15498430,372 Acacia Ave,San Bruno,CA,94066
739,15623839,3248 Shelter Creek Ln,San Bruno,CA,94066
740,15496595,470 Kains Ave,San Bruno,CA,94066
741,19557161,2141 Sheraton Dr,Santa Clara,CA,95050
742,19599750,756 Malarin Ave,Santa Clara,CA,95050
743,64534811,2250 Monroe St APT 229,Santa Clara,CA,95050
744,19607573,148 N Henry Ave,Santa Clara,CA,95050
745,19552903,2535 Crystal Dr,Santa Clara,CA,95051
746,19555540,1992 Bowers Ave,Santa Clara,CA,95051
747,19556404,1687 Roll St,Santa Clara,CA,95050
748,19595799,2235 Homestead Rd,Santa Clara,CA,95050
749,19552275,2480 Monroe St,Santa Clara,CA,95051
750,19598660,2890 Stevenson St,Santa Clara,CA,95051
753,2101355421,1085 Tasman #787,Sunnyvale,CA,94089
754,82952238,419 Paria Ter,Sunnyvale,CA,94089
755,19549059,798 S Wolfe Rd,Sunnyvale,CA,94086
756,19540838,1212 Navlet Ct,Sunnyvale,CA,94087
757,19521218,955 Bidwell Ave,Sunnyvale,CA,94086
758,89473762,481 Tristania Ter,Sunnyvale,CA,94086
759,19492821,742 Lakewood Dr,Sunnyvale,CA,94089
760,19546374,595 Blackwood Ter,Sunnyvale,CA,94086
761,2101353074,781 N. Fair Oaks Avenue #1,SUNNYVALE,CA,94085
762,19536869,695 S Knickerbocker Dr APT 24,Sunnyvale,CA,94087
763,19491163,1133 Prescott Ave,Sunnyvale,CA,94089
